CCSDS_OMM_VERS = 2.0
CREATION_DATE  = 
ORIGINATOR     = 

OBJECT_NAME    = UNKNOWN
OBJECT_ID      = 
CENTER_NAME    = EARTH
REF_FRAME      = TEME
TIME_SYSTEM    = UTC
MEAN_ELEMENT_THEORY = SGP/SGP4

EPOCH          = 2025-12-03T18:15:31.711680
MEAN_MOTION    = 14.11656049
ECCENTRICITY   = .0025639
INCLINATION    = 98.5972
RA_OF_ASC_NODE = 343.8319
ARG_OF_PERICENTER = 270.5850
MEAN_ANOMALY   = 89.2384

EPHEMERIS_TYPE = 0
CLASSIFICATION_TYPE = U
NORAD_CAT_ID   = 87998
ELEMENT_SET_NO = 999
REV_AT_EPOCH   = 54763
BSTAR          = .7365E-3
MEAN_MOTION_DOT = .1302E-4
MEAN_MOTION_DDOT = 0

CCSDS_OMM_VERS = 2.0
CREATION_DATE  = 
ORIGINATOR     = 

OBJECT_NAME    = UNKNOWN
OBJECT_ID      = 
CENTER_NAME    = EARTH
REF_FRAME      = TEME
TIME_SYSTEM    = UTC
MEAN_ELEMENT_THEORY = SGP/SGP4

EPOCH          = 2025-11-15T13:17:57.789312
MEAN_MOTION    = 14.36170170
ECCENTRICITY   = .0014016
INCLINATION    = 74.0493
RA_OF_ASC_NODE = 64.4739
ARG_OF_PERICENTER = 133.4339
MEAN_ANOMALY   = 226.7983

EPHEMERIS_TYPE = 0
CLASSIFICATION_TYPE = U
NORAD_CAT_ID   = 89003
ELEMENT_SET_NO = 999
REV_AT_EPOCH   = 62764
BSTAR          = .25466E-3
MEAN_MOTION_DOT = .717E-5
MEAN_MOTION_DDOT = 0

CCSDS_OMM_VERS = 2.0
CREATION_DATE  = 
ORIGINATOR     = 

OBJECT_NAME    = UNKNOWN
OBJECT_ID      = 
CENTER_NAME    = EARTH
REF_FRAME      = TEME
TIME_SYSTEM    = UTC
MEAN_ELEMENT_THEORY = SGP/SGP4

EPOCH          = 2025-12-13T07:08:22.316064
MEAN_MOTION    = 14.45567558
ECCENTRICITY   = .0192368
INCLINATION    = 97.8386
RA_OF_ASC_NODE = 176.3990
ARG_OF_PERICENTER = 30.2013
MEAN_ANOMALY   = 331.0104

EPHEMERIS_TYPE = 0
CLASSIFICATION_TYPE = U
NORAD_CAT_ID   = 89005
ELEMENT_SET_NO = 999
REV_AT_EPOCH   = 53417
BSTAR          = .83919E-3
MEAN_MOTION_DOT = .368E-4
MEAN_MOTION_DDOT = 0

CCSDS_OMM_VERS = 2.0
CREATION_DATE  = 
ORIGINATOR     = 

OBJECT_NAME    = UNKNOWN
OBJECT_ID      = 
CENTER_NAME    = EARTH
REF_FRAME      = TEME
TIME_SYSTEM    = UTC
MEAN_ELEMENT_THEORY = SGP/SGP4

EPOCH          = 2025-12-11T23:10:24.978432
MEAN_MOTION    = 14.94392488
ECCENTRICITY   = .0022271
INCLINATION    = 98.0504
RA_OF_ASC_NODE = 245.1940
ARG_OF_PERICENTER = 332.5141
MEAN_ANOMALY   = 27.4899

EPHEMERIS_TYPE = 0
CLASSIFICATION_TYPE = U
NORAD_CAT_ID   = 89029
ELEMENT_SET_NO = 999
REV_AT_EPOCH   = 65096
BSTAR          = .78901E-3
MEAN_MOTION_DOT = .848E-4
MEAN_MOTION_DDOT = 0

CCSDS_OMM_VERS = 2.0
CREATION_DATE  = 
ORIGINATOR     = 

OBJECT_NAME    = UNKNOWN
OBJECT_ID      = 
CENTER_NAME    = EARTH
REF_FRAME      = TEME
TIME_SYSTEM    = UTC
MEAN_ELEMENT_THEORY = SGP/SGP4

EPOCH          = 2025-12-11T15:19:48.668736
MEAN_MOTION    = 13.04011174
ECCENTRICITY   = .0146691
INCLINATION    = 100.4694
RA_OF_ASC_NODE = 282.3764
ARG_OF_PERICENTER = 110.0060
MEAN_ANOMALY   = 251.6908

EPHEMERIS_TYPE = 0
CLASSIFICATION_TYPE = U
NORAD_CAT_ID   = 89101
ELEMENT_SET_NO = 999
REV_AT_EPOCH   = 55470
BSTAR          = -.34074E-3
MEAN_MOTION_DOT = -.157E-5
MEAN_MOTION_DDOT = 0

CCSDS_OMM_VERS = 2.0
CREATION_DATE  = 
ORIGINATOR     = 

OBJECT_NAME    = UNKNOWN
OBJECT_ID      = 
CENTER_NAME    = EARTH
REF_FRAME      = TEME
TIME_SYSTEM    = UTC
MEAN_ELEMENT_THEORY = SGP/SGP4

EPOCH          = 2025-12-09T11:32:17.370240
MEAN_MOTION    = 8.86454177
ECCENTRICITY   = .2933118
INCLINATION    = 63.4270
RA_OF_ASC_NODE = 54.2233
ARG_OF_PERICENTER = 319.5850
MEAN_ANOMALY   = 21.9810

EPHEMERIS_TYPE = 0
CLASSIFICATION_TYPE = U
NORAD_CAT_ID   = 89132
ELEMENT_SET_NO = 999
REV_AT_EPOCH   = 32482
BSTAR          = .80955E-2
MEAN_MOTION_DOT = .6081E-4
MEAN_MOTION_DDOT = 0

CCSDS_OMM_VERS = 2.0
CREATION_DATE  = 
ORIGINATOR     = 

OBJECT_NAME    = UNKNOWN
OBJECT_ID      = 
CENTER_NAME    = EARTH
REF_FRAME      = TEME
TIME_SYSTEM    = UTC
MEAN_ELEMENT_THEORY = SGP/SGP4

EPOCH          = 2025-12-13T01:20:59.300160
MEAN_MOTION    = 14.63046108
ECCENTRICITY   = .009485
INCLINATION    = 98.2473
RA_OF_ASC_NODE = 275.7795
ARG_OF_PERICENTER = 54.7353
MEAN_ANOMALY   = 306.2677

EPHEMERIS_TYPE = 0
CLASSIFICATION_TYPE = U
NORAD_CAT_ID   = 89146
ELEMENT_SET_NO = 999
REV_AT_EPOCH   = 62892
BSTAR          = .1323E-2
MEAN_MOTION_DOT = .7197E-4
MEAN_MOTION_DDOT = 0

CCSDS_OMM_VERS = 2.0
CREATION_DATE  = 
ORIGINATOR     = 

OBJECT_NAME    = UNKNOWN
OBJECT_ID      = 
CENTER_NAME    = EARTH
REF_FRAME      = TEME
TIME_SYSTEM    = UTC
MEAN_ELEMENT_THEORY = SGP/SGP4

EPOCH          = 2025-12-12T11:46:14.192256
MEAN_MOTION    = 15.39850817
ECCENTRICITY   = .0039463
INCLINATION    = 97.6591
RA_OF_ASC_NODE = 2.1847
ARG_OF_PERICENTER = 65.7239
MEAN_ANOMALY   = 294.8120

EPHEMERIS_TYPE = 0
CLASSIFICATION_TYPE = U
NORAD_CAT_ID   = 89161
ELEMENT_SET_NO = 999
REV_AT_EPOCH   = 54854
BSTAR          = .29047E-2
MEAN_MOTION_DOT = .120039E-2
MEAN_MOTION_DDOT = 0

CCSDS_OMM_VERS = 2.0
CREATION_DATE  = 
ORIGINATOR     = 

OBJECT_NAME    = UNKNOWN
OBJECT_ID      = 
CENTER_NAME    = EARTH
REF_FRAME      = TEME
TIME_SYSTEM    = UTC
MEAN_ELEMENT_THEORY = SGP/SGP4

EPOCH          = 2025-12-13T09:04:17.146272
MEAN_MOTION    = 14.46542494
ECCENTRICITY   = .0290883
INCLINATION    = 82.0635
RA_OF_ASC_NODE = 221.3469
ARG_OF_PERICENTER = 279.7100
MEAN_ANOMALY   = 77.1354

EPHEMERIS_TYPE = 0
CLASSIFICATION_TYPE = U
NORAD_CAT_ID   = 89172
ELEMENT_SET_NO = 999
REV_AT_EPOCH   = 60198
BSTAR          = .33102E-2
MEAN_MOTION_DOT = .20336E-3
MEAN_MOTION_DDOT = 0

CCSDS_OMM_VERS = 2.0
CREATION_DATE  = 
ORIGINATOR     = 

OBJECT_NAME    = UNKNOWN
OBJECT_ID      = 
CENTER_NAME    = EARTH
REF_FRAME      = TEME
TIME_SYSTEM    = UTC
MEAN_ELEMENT_THEORY = SGP/SGP4

EPOCH          = 2025-12-12T12:22:39.262944
MEAN_MOTION    = 13.73726238
ECCENTRICITY   = .003308
INCLINATION    = 82.9214
RA_OF_ASC_NODE = 269.2846
ARG_OF_PERICENTER = 141.3602
MEAN_ANOMALY   = 218.9930

EPHEMERIS_TYPE = 0
CLASSIFICATION_TYPE = U
NORAD_CAT_ID   = 89177
ELEMENT_SET_NO = 999
REV_AT_EPOCH   = 6279
BSTAR          = .11946E-3
MEAN_MOTION_DOT = .127E-5
MEAN_MOTION_DDOT = 0

CCSDS_OMM_VERS = 2.0
CREATION_DATE  = 
ORIGINATOR     = 

OBJECT_NAME    = UNKNOWN
OBJECT_ID      = 
CENTER_NAME    = EARTH
REF_FRAME      = TEME
TIME_SYSTEM    = UTC
MEAN_ELEMENT_THEORY = SGP/SGP4

EPOCH          = 2025-12-13T11:38:46.274784
MEAN_MOTION    = 13.81580743
ECCENTRICITY   = .0130112
INCLINATION    = 99.2185
RA_OF_ASC_NODE = 258.5455
ARG_OF_PERICENTER = 154.3431
MEAN_ANOMALY   = 206.4254

EPHEMERIS_TYPE = 0
CLASSIFICATION_TYPE = U
NORAD_CAT_ID   = 89183
ELEMENT_SET_NO = 999
REV_AT_EPOCH   = 60707
BSTAR          = .60062E-3
MEAN_MOTION_DOT = .641E-5
MEAN_MOTION_DDOT = 0

CCSDS_OMM_VERS = 2.0
CREATION_DATE  = 
ORIGINATOR     = 

OBJECT_NAME    = UNKNOWN
OBJECT_ID      = 
CENTER_NAME    = EARTH
REF_FRAME      = TEME
TIME_SYSTEM    = UTC
MEAN_ELEMENT_THEORY = SGP/SGP4

EPOCH          = 2025-12-13T10:13:02.074080
MEAN_MOTION    = 14.81116511
ECCENTRICITY   = .0009511
INCLINATION    = 98.3888
RA_OF_ASC_NODE = 212.1820
ARG_OF_PERICENTER = 115.4257
MEAN_ANOMALY   = 244.7939

EPHEMERIS_TYPE = 0
CLASSIFICATION_TYPE = U
NORAD_CAT_ID   = 89184
ELEMENT_SET_NO = 999
REV_AT_EPOCH   = 49227
BSTAR          = .57397E-2
MEAN_MOTION_DOT = .44844E-3
MEAN_MOTION_DDOT = 0

