UNKNOWN                 
1 87998U          25337.76078370  .00001302  00000+0  73650-3 0  9998
2 87998  98.5972 343.8319 0025639 270.5850  89.2384 14.11656049547632
UNKNOWN                 
1 89003U          25319.55414108  .00000717  00000+0  25466-3 0  9998
2 89003  74.0493  64.4739 0014016 133.4339 226.7983 14.36170170627642
UNKNOWN                 
1 89005U          25347.29748051  .00003680  00000+0  83919-3 0  9998
2 89005  97.8386 176.3990 0192368  30.2013 331.0104 14.45567558534170
UNKNOWN                 
1 89029U          25345.96556688  .00008480  00000+0  78901-3 0  9997
2 89029  98.0504 245.1940 0022271 332.5141  27.4899 14.94392488650961
UNKNOWN                 
1 89101U          25345.63875774 -.00000157  00000+0 -34074-3 0  9990
2 89101 100.4694 282.3764 0146691 110.0060 251.6908 13.04011174554706
UNKNOWN                 
1 89132U          25343.48075660  .00006081  00000+0  80955-2 0  9999
2 89132  63.4270  54.2233 2933118 319.5850  21.9810  8.86454177324824
UNKNOWN                 
1 89146U          25347.05624190  .00007197  00000+0  13230-2 0  9990
2 89146  98.2473 275.7795 0094850  54.7353 306.2677 14.63046108628929
UNKNOWN                 
1 89161U          25346.49044204  .00120039  00000+0  29047-2 0  9990
2 89161  97.6591   2.1847 0039463  65.7239 294.8120 15.39850817548542
UNKNOWN                 
1 89172U          25347.37797623  .00020336  00000+0  33102-2 0  9996
2 89172  82.0635 221.3469 0290883 279.7100  77.1354 14.46542494601980
UNKNOWN                 
1 89177U          25346.51573221  .00000127  00000+0  11946-3 0  9991
2 89177  82.9214 269.2846 0033080 141.3602 218.9930 13.73726238 62796
UNKNOWN                 
1 89183U          25347.48525781  .00000641  00000+0  60062-3 0  9997
2 89183  99.2185 258.5455 0130112 154.3431 206.4254 13.81580743607071
UNKNOWN                 
1 89184U          25347.42571845  .00044844  00000+0  57397-2 0  9993
2 89184  98.3888 212.1820 0009511 115.4257 244.7939 14.81116511492274
